NORAD_CAT_ID,OBJECT_NAME,OBJECT_TYPE,EPOCH,MEAN_MOTION,ECCENTRICITY,INCLINATION,RA_OF_ASC_NODE,ARG_OF_PERICENTER,MEAN_ANOMALY,BSTAR,MEAN_MOTION_DOT,MEAN_MOTION_DDOT,TLE_LINE0,TLE_LINE1,TLE_LINE2,SEMIMAJOR_AXIS,PERIOD,APOGEE,PERIGEE,DECAYED
52000.0,STARLINK-3653,PAYLOAD,2022-09-12 22:00:00,15.08848784,0.0001413,53.2191,337.3061,53.7272,63.4824,-0.00075203,-0.00012239,0.0,0 STARLINK-3653,1 52000U 22025AW  22255.91667824 -.00012239  00000-0 -75203-3 0  9996,2 52000  53.2191 337.3061 0001413  53.7272  63.4824 15.08848784 30168,6917.854,95.437,540.696,538.741,0.0
52000.0,STARLINK-3653,PAYLOAD,2022-09-13 14:00:01,15.08841956,0.0001671,53.219,334.3145,50.2528,90.1261,-0.00059298,-9.713e-05,0.0,0 STARLINK-3653,1 52000U 22025AW  22256.58334491 -.00009713  00000-0 -59298-3 0  9990,2 52000  53.2190 334.3145 0001671  50.2528  90.1261 15.08841956  1309,6917.874,95.437,540.895,538.5830000000002,0.0
52000.0,STARLINK-3653,PAYLOAD,2022-09-13 22:00:00,15.08845792,0.0001612,53.2193,332.8167,53.6354,98.3241,-0.0012915,-0.00020787,0.0,0 STARLINK-3653,1 52000U 22025AW  22256.91667824 -.00020787  00000-0 -12915-2 0  9994,2 52000  53.2193 332.8167 0001612  53.6354  98.3241 15.08845792  1308,6917.863,95.437,540.8430000000002,538.613,0.0
52000.0,STARLINK-3653,PAYLOAD,2022-09-14 06:00:00,15.08841842,0.0001671,53.2193,331.3197,59.5327,104.0231,-0.00073627,-0.00011987,0.0,0 STARLINK-3653,1 52000U 22025AW  22257.25001157 -.00011987  00000-0 -73627-3 0  9993,2 52000  53.2193 331.3197 0001671  59.5327 104.0231 15.08841842 30369,6917.875,95.437,540.896,538.5840000000002,0.0
52000.0,STARLINK-3653,PAYLOAD,2022-09-14 14:00:01,15.08811619,0.0001825,53.2195,329.8256,52.8076,122.338,0.0025448,0.00040414,0.0,0 STARLINK-3653,1 52000U 22025AW  22257.58334491  .00040414  00000-0  25448-2 0  9991,2 52000  53.2195 329.8256 0001825  52.8076 122.3380 15.08811619  1306,6917.967,95.439,541.095,538.57,0.0
52000.0,STARLINK-3653,PAYLOAD,2022-09-14 22:00:00,15.08853414,0.0001656,53.2195,328.3279,54.7106,132.0121,-0.0034181999999999,-0.00054299,0.0,0 STARLINK-3653,1 52000U 22025AW  22257.91667824 -.00054299  00000-0 -34182-2 0  9990,2 52000  53.2195 328.3279 0001656  54.7106 132.0121 15.08853414  1302,6917.839,95.437,540.85,538.559,0.0
52000.0,STARLINK-3653,PAYLOAD,2022-09-15 06:00:00,15.08872461,0.0001656,53.2197,326.8313,59.8088,138.51,-0.0025358,-0.00040455,0.0,0 STARLINK-3653,1 52000U 22025AW  22258.25001157 -.00040455  00000-0 -25358-2 0  9993,2 52000  53.2197 326.8313 0001656  59.8088 138.5100 15.08872461 30517,6917.781,95.436,540.7919999999998,538.501,0.0
52000.0,STARLINK-3653,PAYLOAD,2022-09-15 14:00:01,15.08815801,0.0001751999999999,53.2196,325.3365,50.1416,159.8015,0.0030410999999999,0.00048412,0.0,0 STARLINK-3653,1 52000U 22025AW  22258.58334491  .00048412  00000-0  30411-2 0  9994,2 52000  53.2196 325.3365 0001752  50.1416 159.8015 15.08815801  1304,6917.954000000002,95.439,541.031,538.607,0.0
52000.0,STARLINK-3653,PAYLOAD,2022-09-15 16:00:00,15.08820212,0.0001729,53.2193,324.9624,49.1087,253.7293,0.0032726999999999,0.00052154,0.0,0 STARLINK-3653,1 52000U 22025AW  22258.66667824  .00052154  00000-0  32727-2 0  9992,2 52000  53.2193 324.9624 0001729  49.1087 253.7293 15.08820212 30575,6917.941,95.439,541.002,538.61,0.0
52000.0,STARLINK-3653,PAYLOAD,2022-09-15 21:01:21,15.08838734,0.000164,53.2201,324.0222,56.794,303.3209,4.4548e-05,4.21e-06,0.0,0 STARLINK-3653,1 52000U 22025AW  22258.87593982  .00000421  00000-0  44548-4 0  9994,2 52000  53.2201 324.0222 0001640  56.7940 303.3209 15.08838734 30605,6917.884,95.438,540.884,538.615,0.0
52000.0,STARLINK-3653,PAYLOAD,2022-09-16 09:44:25,15.08847359,0.0001638,53.2201,321.6436,53.0147,307.0995,0.00010604,1.4e-05,0.0,0 STARLINK-3653,1 52000U 22025AW  22259.40585223  .00001400  00000-0  10604-3 0  9996,2 52000  53.2201 321.6436 0001638  53.0147 307.0995 15.08847359 29155,6917.858,95.437,540.856,538.59,0.0
52000.0,STARLINK-3653,PAYLOAD,2022-09-17 11:10:37,15.08832682,0.000165,53.2197,316.8858,57.2686,302.8465,-8.3669e-05,-1.619e-05,0.0,0 STARLINK-3653,1 52000U 22025AW  22260.46570949 -.00001619  00000-0 -83669-4 0  9999,2 52000  53.2197 316.8858 0001650  57.2686 302.8465 15.08832682 29317,6917.903,95.438,540.909,538.626,0.0
52000.0,STARLINK-3653,PAYLOAD,2022-09-18 11:01:23,15.08841521,0.0001619,53.2197,312.4249,58.779,301.336,5.1801e-05,5.37e-06,0.0,0 STARLINK-3653,1 52000U 22025AW  22261.45930385  .00000537  00000-0  51801-4 0  9992,2 52000  53.2197 312.4249 0001619  58.7790 301.3360 15.08841521 30996,6917.876,95.437,540.861,538.621,0.0
52000.0,STARLINK-3653,PAYLOAD,2022-09-18 12:36:46,15.08848209,0.0001723,53.2195,312.1273,55.9547,304.1608,-1.8502e-05,-5.83e-06,0.0,0 STARLINK-3653,1 52000U 22025AW  22261.52554188 -.00000583  00000-0 -18502-4 0  9997,2 52000  53.2195 312.1273 0001723  55.9547 304.1608 15.08848209 29470,6917.855,95.437,540.9119999999998,538.528,0.0
52000.0,STARLINK-3653,PAYLOAD,2022-09-19 09:16:46,15.08858451,0.0001733999999999,53.2198,308.2622,68.0201,292.0975,0.0001341999999999,1.849e-05,0.0,0 STARLINK-3653,1 52000U 22025AW  22262.38665086  .00001849  00000-0  13420-3 0  9999,2 52000  53.2198 308.2622 0001734  68.0201 292.0975 15.08858451 31139,6917.824000000001,95.436,540.889,538.489,0.0
52000.0,STARLINK-3653,PAYLOAD,2022-09-19 12:27:34,15.08839398,0.0001778,53.2196,307.6675,56.3189,303.7972,0.00016617,2.357e-05,0.0,0 STARLINK-3653,1 52000U 22025AW  22262.51914398  .00002357  00000-0  16617-3 0  9993,2 52000  53.2196 307.6675 0001778  56.3189 303.7972 15.08839398 29628,6917.882,95.438,540.977,538.5169999999998,0.0
52000.0,STARLINK-3653,PAYLOAD,2022-09-20 09:07:34,15.0883797,0.0001740999999999,53.2187,303.8013,60.3199,299.7966,-1.3763e-05,-5.07e-06,0.0,0 STARLINK-3653,1 52000U 22025AW  22263.38026483 -.00000507  00000-0 -13763-4 0  9995,2 52000  53.2187 303.8013 0001741  60.3199 299.7966 15.08837970 29753,6917.887,95.438,540.956,538.547,0.0
52000.0,STARLINK-3653,PAYLOAD,2022-09-21 02:36:49,15.0884171,0.0001854,53.2191,300.5321,52.4834,307.6326,-3.4617e-05,-8.39e-06,0.0,0 STARLINK-3653,1 52000U 22025AW  22264.10890398 -.00000839  00000-0 -34617-4 0  9999,2 52000  53.2191 300.5321 0001854  52.4834 307.6326 15.08841710 31396,6917.875,95.437,541.023,538.4580000000002,0.0
52000.0,STARLINK-3653,PAYLOAD,2022-09-21 04:12:12,15.08837876,0.0001878,53.2188,300.2343,55.3352,304.7817,-8.0166e-05,-1.564e-05,0.0,0 STARLINK-3653,1 52000U 22025AW  22264.17514603 -.00001564  00000-0 -80166-4 0  9994,2 52000  53.2188 300.2343 0001878  55.3352 304.7817 15.08837876 29877,6917.887,95.438,541.0509999999998,538.453,0.0
52000.0,STARLINK-3653,PAYLOAD,2022-09-22 02:27:36,15.08835448,0.0001892,53.2196,296.0713,51.8783,308.2379,0.00010136,1.325e-05,0.0,0 STARLINK-3653,1 52000U 22025AW  22265.10251024  .00001325  00000-0  10136-3 0  9995,2 52000  53.2196 296.0713 0001892  51.8783 308.2379 15.08835448 31546,6917.894,95.438,541.068,538.45,0.0
52000.0,STARLINK-3653,PAYLOAD,2022-09-22 05:38:23,15.088354,0.0001831,53.2196,295.4763,54.396,305.7202,0.00013434,1.85e-05,0.0,0 STARLINK-3653,1 52000U 22025AW  22265.23498947  .00001850  00000-0  13434-3 0  9993,2 52000  53.2196 295.4763 0001831  54.3960 305.7202 15.08835400 30030,6917.894,95.438,541.026,538.493,0.0
52000.0,STARLINK-3653,PAYLOAD,2022-09-23 07:04:33,15.08829548,0.0001788,53.2194,290.7184,54.3868,305.7291,7.4873e-05,9.03e-06,0.0,0 STARLINK-3653,1 52000U 22025AW  22266.29483751  .00000903  00000-0  74873-4 0  9990,2 52000  53.2194 290.7184 0001788  54.3868 305.7291 15.08829548 30192,6917.9119999999975,95.438,541.014,538.54,0.0
52000.0,STARLINK-3653,PAYLOAD,2022-09-23 22:58:24,15.08840399,0.0001626999999999,53.2193,287.7434,64.899,295.2171,9.1585e-05,1.17e-05,0.0,0 STARLINK-3653,1 52000U 22025AW  22266.95723241  .00001170  00000-0  91585-4 0  9990,2 52000  53.2193 287.7434 0001627  64.8990 295.2171 15.08840399 31827,6917.879,95.438,540.87,538.619,0.0
52000.0,STARLINK-3653,PAYLOAD,2022-09-24 06:55:20,15.08845282,0.0001821,53.2191,286.2578,54.1667,305.9494,0.00014223,1.977e-05,0.0,0 STARLINK-3653,1 52000U 22025AW  22267.28843049  .00001977  00000-0  14223-3 0  9994,2 52000  53.2191 286.2578 0001821  54.1667 305.9494 15.08845282 30346,6917.864000000001,95.437,540.989,538.47,0.0
52000.0,STARLINK-3653,PAYLOAD,2022-09-25 08:21:30,15.08841263,0.0002002,53.2182,281.5016,49.8975,310.2193,5.1574e-05,5.33e-06,0.0,0 STARLINK-3653,1 52000U 22025AW  22268.34827254  .00000533  00000-0  51574-4 0  9990,2 52000  53.2182 281.5016 0002002  49.8975 310.2193 15.08841263 32034,6917.877,95.437,541.126,538.357,0.0
52000.0,STARLINK-3653,PAYLOAD,2022-09-26 08:12:17,15.08840237,0.0001581,53.2177,277.0416,62.1759,297.9394,1.0458e-05,-1.22e-06,0.0,0 STARLINK-3653,1 52000U 22025AW  22269.34187089 -.00000122  00000-0  10458-4 0  9997,2 52000  53.2177 277.0416 0001581  62.1759 297.9394 15.08840237 30651,6917.88,95.438,540.8380000000002,538.651,0.0
52000.0,STARLINK-3653,PAYLOAD,2022-09-26 17:44:36,15.0883881,0.0001709,53.218,275.2548,53.1753,306.9395,5.4323e-05,5.77e-06,0.0,0 STARLINK-3653,1 52000U 22025AW  22269.73931234  .00000577  00000-0  54323-4 0  9991,2 52000  53.2180 275.2548 0001709  53.1753 306.9395 15.08838810 32240,6917.884,95.438,540.931,538.567,0.0
52000.0,STARLINK-3653,PAYLOAD,2022-09-27 08:03:04,15.08850625,0.0001766,53.2192,272.5796,52.6597,307.4556,0.00013448,1.853e-05,0.0,0 STARLINK-3653,1 52000U 22025AW  22270.33546571  .00001853  00000-0  13448-3 0  9995,2 52000  53.2192 272.5796 0001766  52.6597 307.4556 15.08850625 32334,6917.848000000001,95.437,540.935,538.491,0.0
52000.0,STARLINK-3653,PAYLOAD,2022-09-27 20:46:09,15.08840169,0.0001833,53.2189,270.2019,52.1979,307.9179,0.00011148,1.487e-05,0.0,0 STARLINK-3653,1 52000U 22025AW  22270.86539037  .00001487  00000-0  11148-3 0  9990,2 52000  53.2189 270.2019 0001833  52.1979 307.9179 15.08840169 30883,6917.88,95.438,541.013,538.477,0.0
